ONEWEB-0156             
1 48052U 21025L   23233.05453542  .00000058  00000+0  12370-3 0  9998
2 48052  87.9095 165.3647 0002018  79.1825 280.9531 13.13469677118223
ONEWEB-0161             
1 48053U 21025M   23233.86498219  .00003990  00000+0  10889-1 0  9997
2 48053  87.9083 165.1696 0000787 241.4466 118.6584 13.13451039118261
ONEWEB-0158             
1 48054U 21025N   23233.06721671 -.00000272  00000+0 -77948-3 0  9994
2 48054  87.9032 165.3719 0001792  84.0983 276.0351 13.13470346118270
ONEWEB-0157             
1 48055U 21025P   23233.85228759 -.00000106  00000+0 -32515-3 0  9998
2 48055  87.9088 165.1738 0002159  72.6585 287.4780 13.13471013118320
ONEWEB-0162             
1 48056U 21025Q   23233.81417789  .00000282  00000+0  73836-3 0  9992
2 48056  87.9087 165.1807 0002008  75.6553 284.4799 13.13472823118268
ONEWEB-0155             
1 48057U 21025R   23233.83534193 -.00000209  00000+0 -60610-3 0  9991
2 48057  87.9091 165.1820 0002060  79.4061 280.7300 13.13467212118435
ONEWEB-0149             
1 48058U 21025S   23233.85651185 -.00000582  00000+0 -16280-2 0  9992
2 48058  87.9097 165.1768 0002015  70.2273 289.9073 13.13469885118242
ONEWEB-0148             
1 48059U 21025T   23233.82053669  .00000092  00000+0  21690-3 0  9999
2 48059  87.9084 165.1929 0002041  53.9608 306.1710 13.13466893118355
